[
    {
        "Altitude(m)": 710041.7822276715,
        "Argument of Periapsis(deg)": 0.004556048474650827,
        "Eccentricity": 0.0,
        "Inclination(deg)": 45.0,
        "Latitude(deg)": -25.570197120729055,
        "Longitude(deg)": -106.87257519433402,
        "Mean Anomaly(deg)": -142.65941334100765,
        "RAAN(deg)": 144.99569922341672,
        "Satellite Name": "Constellation 1 651",
        "Satellite Number": 651,
        "Semi-Major Axis(m)": 7083131.272910544,
        "Time(s)": 76
    },
    {
        "Altitude(m)": 710055.5989927977,
        "Argument of Periapsis(deg)": 0.004615996480896233,
        "Eccentricity": 0.0,
        "Inclination(deg)": 45.0,
        "Latitude(deg)": -25.608072583992197,
        "Longitude(deg)": -106.82413955077713,
        "Mean Anomaly(deg)": -142.59871220075777,
        "RAAN(deg)": 144.99564263425117,
        "Satellite Name": "Constellation 1 651",
        "Satellite Number": 651,
        "Semi-Major Axis(m)": 7083131.272910544,
        "Time(s)": 77
    },
    {
        "Altitude(m)": 710069.4174133608,
        "Argument of Periapsis(deg)": 0.004675944487141638,
        "Eccentricity": 0.0,
        "Inclination(deg)": 45.0,
        "Latitude(deg)": -25.64592887271567,
        "Longitude(deg)": -106.775670933912,
        "Mean Anomaly(deg)": -142.53801106050784,
        "RAAN(deg)": 144.9955860450856,
        "Satellite Name": "Constellation 1 651",
        "Satellite Number": 651,
        "Semi-Major Axis(m)": 7083131.272910544,
        "Time(s)": 78
    },
    {
        "Altitude(m)": 710083.2374421678,
        "Argument of Periapsis(deg)": 0.004735892493387044,
        "Eccentricity": 0.0,
        "Inclination(deg)": 45.0,
        "Latitude(deg)": -25.683765943227353,
        "Longitude(deg)": -106.72716928354355,
        "Mean Anomaly(deg)": -142.47730992025797,
        "RAAN(deg)": 144.99552945592,
        "Satellite Name": "Constellation 1 651",
        "Satellite Number": 651,
        "Semi-Major Axis(m)": 7083131.272910544,
        "Time(s)": 79
    },
    {
        "Altitude(m)": 710097.0590320282,
        "Argument of Periapsis(deg)": 0.004795840499632449,
        "Eccentricity": 0.0,
        "Inclination(deg)": 45.0,
        "Latitude(deg)": -25.72158375179174,
        "Longitude(deg)": -106.67863453947653,
        "Mean Anomaly(deg)": -142.41660878000803,
        "RAAN(deg)": 144.99547286675445,
        "Satellite Name": "Constellation 1 651",
        "Satellite Number": 651,
        "Semi-Major Axis(m)": 7083131.272910544,
        "Time(s)": 80
    },
    {
        "Altitude(m)": 710110.8821357125,
        "Argument of Periapsis(deg)": 0.004855788505877855,
        "Eccentricity": 0.0,
        "Inclination(deg)": 45.0,
        "Latitude(deg)": -25.759382254609505,
        "Longitude(deg)": -106.63006664151649,
        "Mean Anomaly(deg)": -142.3559076397582,
        "RAAN(deg)": 144.9954162775889,
        "Satellite Name": "Constellation 1 651",
        "Satellite Number": 651,
        "Semi-Major Axis(m)": 7083131.272910544,
        "Time(s)": 81
    },
    {
        "Altitude(m)": 710124.7067059907,
        "Argument of Periapsis(deg)": 0.00491573651212326,
        "Eccentricity": 0.0,
        "Inclination(deg)": 45.0,
        "Latitude(deg)": -25.797161407817743,
        "Longitude(deg)": -106.58146569756664,
        "Mean Anomaly(deg)": -142.29520649950828,
        "RAAN(deg)": 144.99535968842332,
        "Satellite Name": "Constellation 1 651",
        "Satellite Number": 651,
        "Semi-Major Axis(m)": 7083131.272910544,
        "Time(s)": 82
    },
    {
        "Altitude(m)": 710138.5326956,
        "Argument of Periapsis(deg)": 0.004975684518368666,
        "Eccentricity": 0.0,
        "Inclination(deg)": 45.0,
        "Latitude(deg)": -25.834921167490013,
        "Longitude(deg)": -106.5328313112399,
        "Mean Anomaly(deg)": -142.23450535925835,
        "RAAN(deg)": 144.99530309925774,
        "Satellite Name": "Constellation 1 651",
        "Satellite Number": 651,
        "Semi-Major Axis(m)": 7083131.272910544,
        "Time(s)": 83
    },
    {
        "Altitude(m)": 710152.3600572675,
        "Argument of Periapsis(deg)": 0.005035632524614072,
        "Eccentricity": 0.0,
        "Inclination(deg)": 45.0,
        "Latitude(deg)": -25.872661489635483,
        "Longitude(deg)": -106.48416359044239,
        "Mean Anomaly(deg)": -142.17380421900845,
        "RAAN(deg)": 144.99524651009216,
        "Satellite Name": "Constellation 1 651",
        "Satellite Number": 651,
        "Semi-Major Axis(m)": 7083131.272910544,
        "Time(s)": 84
    },
    {
        "Altitude(m)": 710166.1887437047,
        "Argument of Periapsis(deg)": 0.0050955805308594785,
        "Eccentricity": 0.0,
        "Inclination(deg)": 45.0,
        "Latitude(deg)": -25.910382330199724,
        "Longitude(deg)": -106.43546247498442,
        "Mean Anomaly(deg)": -142.11310307875857,
        "RAAN(deg)": 144.9951899209266,
        "Satellite Name": "Constellation 1 651",
        "Satellite Number": 651,
        "Semi-Major Axis(m)": 7083131.272910544,
        "Time(s)": 85
    },
    {
        "Altitude(m)": 710180.0187076018,
        "Argument of Periapsis(deg)": 0.005155528537104883,
        "Eccentricity": 0.0,
        "Inclination(deg)": 45.0,
        "Latitude(deg)": -25.94808364506406,
        "Longitude(deg)": -106.38672790467874,
        "Mean Anomaly(deg)": -142.05240193850867,
        "RAAN(deg)": 144.99513333176105,
        "Satellite Name": "Constellation 1 651",
        "Satellite Number": 651,
        "Semi-Major Axis(m)": 7083131.272910544,
        "Time(s)": 86
    },
    {
        "Altitude(m)": 710193.8499016354,
        "Argument of Periapsis(deg)": 0.0052154765433502885,
        "Eccentricity": 0.0,
        "Inclination(deg)": 45.0,
        "Latitude(deg)": -25.985765390045614,
        "Longitude(deg)": -106.3379598193406,
        "Mean Anomaly(deg)": -141.9917007982588,
        "RAAN(deg)": 144.99507674259544,
        "Satellite Name": "Constellation 1 651",
        "Satellite Number": 651,
        "Semi-Major Axis(m)": 7083131.272910544,
        "Time(s)": 87
    },
    {
        "Altitude(m)": 710207.6822784577,
        "Argument of Periapsis(deg)": 0.005275424549595694,
        "Eccentricity": 0.0,
        "Inclination(deg)": 45.0,
        "Latitude(deg)": -26.023427520897425,
        "Longitude(deg)": -106.28915815878786,
        "Mean Anomaly(deg)": -141.93099965800883,
        "RAAN(deg)": 144.9950201534299,
        "Satellite Name": "Constellation 1 651",
        "Satellite Number": 651,
        "Semi-Major Axis(m)": 7083131.272910544,
        "Time(s)": 88
    },
    {
        "Altitude(m)": 710221.5157907157,
        "Argument of Periapsis(deg)": 0.0053353725558411,
        "Eccentricity": 0.0,
        "Inclination(deg)": 45.0,
        "Latitude(deg)": -26.06106999330775,
        "Longitude(deg)": -106.24032303093918,
        "Mean Anomaly(deg)": -141.87029851775898,
        "RAAN(deg)": 144.99496356426434,
        "Satellite Name": "Constellation 1 651",
        "Satellite Number": 651,
        "Semi-Major Axis(m)": 7083131.272910544,
        "Time(s)": 89
    },
    {
        "Altitude(m)": 710235.3503910305,
        "Argument of Periapsis(deg)": 0.005395320562086505,
        "Eccentricity": 0.0,
        "Inclination(deg)": 45.0,
        "Latitude(deg)": -26.098692762901123,
        "Longitude(deg)": -106.19145403942457,
        "Mean Anomaly(deg)": -141.80959737750905,
        "RAAN(deg)": 144.99490697509876,
        "Satellite Name": "Constellation 1 651",
        "Satellite Number": 651,
        "Semi-Major Axis(m)": 7083131.272910544,
        "Time(s)": 90
    },
    {
        "Altitude(m)": 710249.1860320135,
        "Argument of Periapsis(deg)": 0.00545526856833191,
        "Eccentricity": 0.0,
        "Inclination(deg)": 45.0,
        "Latitude(deg)": -26.136295785236833,
        "Longitude(deg)": -106.14255129216994,
        "Mean Anomaly(deg)": -141.74889623725915,
        "RAAN(deg)": 144.9948503859332,
        "Satellite Name": "Constellation 1 651",
        "Satellite Number": 651,
        "Semi-Major Axis(m)": 7083131.272910544,
        "Time(s)": 91
    },
    {
        "Altitude(m)": 710263.0226662522,
        "Argument of Periapsis(deg)": 0.005515216574577317,
        "Eccentricity": 0.0,
        "Inclination(deg)": 45.0,
        "Latitude(deg)": -26.173879015809884,
        "Longitude(deg)": -106.09361472900817,
        "Mean Anomaly(deg)": -141.6881950970093,
        "RAAN(deg)": 144.9947937967676,
        "Satellite Name": "Constellation 1 651",
        "Satellite Number": 651,
        "Semi-Major Axis(m)": 7083131.272910544,
        "Time(s)": 92
    },
    {
        "Altitude(m)": 710276.8602463263,
        "Argument of Periapsis(deg)": 0.005575164580822722,
        "Eccentricity": 0.0,
        "Inclination(deg)": 45.0,
        "Latitude(deg)": -26.211442410050413,
        "Longitude(deg)": -106.04464428977668,
        "Mean Anomaly(deg)": -141.6274939567594,
        "RAAN(deg)": 144.99473720760204,
        "Satellite Name": "Constellation 1 651",
        "Satellite Number": 651,
        "Semi-Major Axis(m)": 7083131.272910544,
        "Time(s)": 93
    },
    {
        "Altitude(m)": 710290.6987247935,
        "Argument of Periapsis(deg)": 0.005635112587068129,
        "Eccentricity": 0.0,
        "Inclination(deg)": 45.0,
        "Latitude(deg)": -26.24898592332385,
        "Longitude(deg)": -105.99563991431776,
        "Mean Anomaly(deg)": -141.5667928165095,
        "RAAN(deg)": 144.9946806184365,
        "Satellite Name": "Constellation 1 651",
        "Satellite Number": 651,
        "Semi-Major Axis(m)": 7083131.272910544,
        "Time(s)": 94
    }
]